{
  "type": "FeatureCollection",
  "features": [
    {
      "type": "Feature",
      "properties": {
        "norad_id": 50032,
        "name": "COSMOS 1408 DEB",
        "group": "cosmos-1408-debris",
        "lat": 65.62485376331723,
        "lon": -152.246571500376,
        "alt_km": 414.62097281365186,
        "timestamp": "2025-12-26T09:30:53.908432+00:00",
        "meta_object_name": "COSMOS 1408 DEB",
        "meta_object_id": "1982-092RU",
        "meta_epoch": "2025-12-25T14:23:00.706272",
        "meta_mean_motion": 15.45820267,
        "meta_eccentricity": 0.0016562,
        "meta_inclination": 82.5629,
        "meta_ra_of_asc_node": 45.327,
        "meta_arg_of_pericenter": 161.3291,
        "meta_mean_anomaly": 198.8569,
        "meta_ephemeris_type": 0,
        "meta_classification_type": "U",
        "meta_norad_cat_id": 50032,
        "meta_element_set_no": 999,
        "meta_rev_at_epoch": 22802,
        "meta_bstar": 0.00010522,
        "meta_mean_motion_dot": 5.167e-05,
        "meta_mean_motion_ddot": 0,
        "tle_line1": "1 50032U 82092RU  25359.59931373  .00005167  00000+0  10522-3 0  9996",
        "tle_line2": "2 50032  82.5629  45.3270 0016562 161.3291 198.8569 15.45820267228028"
      },
      "geometry": {
        "type": "Point",
        "coordinates": [
          -152.246571500376,
          65.62485376331723
        ]
      }
    },
    {
      "type": "Feature",
      "properties": {
        "norad_id": 50058,
        "name": "COSMOS 1408 DEB",
        "group": "cosmos-1408-debris",
        "lat": 24.147263103658066,
        "lon": -128.29635314733284,
        "alt_km": 375.4164105691443,
        "timestamp": "2025-12-26T09:30:53.908473+00:00",
        "meta_object_name": "COSMOS 1408 DEB",
        "meta_object_id": "1982-092SW",
        "meta_epoch": "2025-12-25T14:26:16.632096",
        "meta_mean_motion": 15.64877111,
        "meta_eccentricity": 0.0015786,
        "meta_inclination": 82.6118,
        "meta_ra_of_asc_node": 55.8717,
        "meta_arg_of_pericenter": 55.2853,
        "meta_mean_anomaly": 304.9891,
        "meta_ephemeris_type": 0,
        "meta_classification_type": "U",
        "meta_norad_cat_id": 50058,
        "meta_element_set_no": 999,
        "meta_rev_at_epoch": 23005,
        "meta_bstar": 0.00032982,
        "meta_mean_motion_dot": 0.0003249,
        "meta_mean_motion_ddot": 0,
        "tle_line1": "1 50058U 82092SW  25359.60158139  .00032490  00000+0  32982-3 0  9990",
        "tle_line2": "2 50058  82.6118  55.8717 0015786  55.2853 304.9891 15.64877111230059"
      },
      "geometry": {
        "type": "Point",
        "coordinates": [
          -128.29635314733284,
          24.147263103658066
        ]
      }
    },
    {
      "type": "Feature",
      "properties": {
        "norad_id": 50404,
        "name": "COSMOS 1408 DEB",
        "group": "cosmos-1408-debris",
        "lat": -12.45632448423231,
        "lon": -160.70547114964137,
        "alt_km": 632.802311907245,
        "timestamp": "2025-12-26T09:30:53.908489+00:00",
        "meta_object_name": "COSMOS 1408 DEB",
        "meta_object_id": "1982-092ADS",
        "meta_epoch": "2025-12-25T00:18:07.841664",
        "meta_mean_motion": 15.15742025,
        "meta_eccentricity": 0.01667949,
        "meta_inclination": 82.202,
        "meta_ra_of_asc_node": 202.4509,
        "meta_arg_of_pericenter": 156.6613,
        "meta_mean_anomaly": 204.2309,
        "meta_ephemeris_type": 0,
        "meta_classification_type": "U",
        "meta_norad_cat_id": 50404,
        "meta_element_set_no": 999,
        "meta_rev_at_epoch": 21379,
        "meta_bstar": 0.0033615862,
        "meta_mean_motion_dot": 0.00092417,
        "meta_mean_motion_ddot": 0,
        "tle_line1": "1 50404U 82092ADS 25359.01259076  .00092417  00000+0  33616-2 0  9991",
        "tle_line2": "2 50404  82.2020 202.4509 0166794 156.6613 204.2309 15.15742025213796"
      },
      "geometry": {
        "type": "Point",
        "coordinates": [
          -160.70547114964137,
          -12.45632448423231
        ]
      }
    },
    {
      "type": "Feature",
      "properties": {
        "norad_id": 50621,
        "name": "COSMOS 1408 DEB",
        "group": "cosmos-1408-debris",
        "lat": 15.96481200849174,
        "lon": -122.18456217756676,
        "alt_km": 386.3375451256461,
        "timestamp": "2025-12-26T09:30:53.908501+00:00",
        "meta_object_name": "COSMOS 1408 DEB",
        "meta_object_id": "1982-092ALR",
        "meta_epoch": "2025-12-25T14:18:40.500576",
        "meta_mean_motion": 15.57315441,
        "meta_eccentricity": 0.0029193,
        "meta_inclination": 82.5685,
        "meta_ra_of_asc_node": 60.7895,
        "meta_arg_of_pericenter": 106.3231,
        "meta_mean_anomaly": 254.1239,
        "meta_ephemeris_type": 0,
        "meta_classification_type": "U",
        "meta_norad_cat_id": 50621,
        "meta_element_set_no": 999,
        "meta_rev_at_epoch": 22450,
        "meta_bstar": 0.00035961,
        "meta_mean_motion_dot": 0.00026858,
        "meta_mean_motion_ddot": 0,
        "tle_line1": "1 50621U 82092ALR 25359.59630209  .00026858  00000+0  35961-3 0  9998",
        "tle_line2": "2 50621  82.5685  60.7895 0029193 106.3231 254.1239 15.57315441224500"
      },
      "geometry": {
        "type": "Point",
        "coordinates": [
          -122.18456217756676,
          15.96481200849174
        ]
      }
    }
  ]
}